NORAD_CAT_ID,OBJECT_NAME,OBJECT_TYPE,EPOCH,MEAN_MOTION,ECCENTRICITY,INCLINATION,RA_OF_ASC_NODE,ARG_OF_PERICENTER,MEAN_ANOMALY,BSTAR,MEAN_MOTION_DOT,MEAN_MOTION_DDOT,TLE_LINE0,TLE_LINE1,TLE_LINE2,SEMIMAJOR_AXIS,PERIOD,APOGEE,PERIGEE,DECAYED
55403.0,STARLINK-5597,PAYLOAD,2023-04-30 13:35:10,15.69914052,0.0003539,69.9975,199.7974,270.4319,89.6471,1.1062e-05,1.117e-05,0.0,0 STARLINK-5597,1 55403U 23014N   23120.56609481  .00001117  00000-0  11062-4 0  9998,2 55403  69.9975 199.7974 0003539 270.4319  89.6471 15.69914052 15098,6737.28,91.725,361.529,356.761,0.0
55403.0,STARLINK-5597,PAYLOAD,2023-04-30 16:38:40,15.69917295,0.0003578,69.9978,199.4396,267.0773,93.0013,1.2592e-05,1.301e-05,0.0,0 STARLINK-5597,1 55403U 23014N   23120.69352588  .00001301  00000-0  12592-4 0  9999,2 55403  69.9978 199.4396 0003578 267.0773  93.0013 15.69917295 14176,6737.271,91.725,361.546,356.725,0.0
55403.0,STARLINK-5597,PAYLOAD,2023-05-01 12:31:27,15.69918201,0.0003348,69.9979,197.1102,263.8924,96.189,1.4759e-05,1.562e-05,0.0,0 STARLINK-5597,1 55403U 23014N   23121.52184404  .00001562  00000-0  14759-4 0  9998,2 55403  69.9979 197.1102 0003348 263.8924  96.1890 15.69918201 15248,6737.268,91.725,361.389,356.877,0.0
55403.0,STARLINK-5597,PAYLOAD,2023-05-01 17:06:42,15.69924303,0.0003196,69.9977,196.5726,261.1005,98.9829,1.4988e-05,1.59e-05,0.0,0 STARLINK-5597,1 55403U 23014N   23121.71299045  .00001590  00000-0  14988-4 0  9992,2 55403  69.9977 196.5726 0003196 261.1005  98.9829 15.69924303 14334,6737.251,91.724,361.269,356.962,0.0
55403.0,STARLINK-5597,PAYLOAD,2023-05-02 12:59:29,15.69918334,0.0003405,69.9972,194.2443,262.1035,97.9774,2.0395e-05,2.24e-05,0.0,0 STARLINK-5597,1 55403U 23014N   23122.54131005  .00002240  00000-0  20395-4 0  9997,2 55403  69.9972 194.2443 0003405 262.1035  97.9774 15.69918334 15401,6737.268,91.725,361.427,356.839,0.0
55403.0,STARLINK-5597,PAYLOAD,2023-05-02 16:02:59,15.69925557,0.0003167,69.9968,193.885,260.8268,99.2569,-1.07e-05,-1.499e-05,0.0,0 STARLINK-5597,1 55403U 23014N   23122.66874305 -.00001499  00000-0 -10700-4 0  9993,2 55403  69.9968 193.8850 0003167 260.8268  99.2569 15.69925557 15425,6737.247,91.724,361.246,356.978,0.0
55403.0,STARLINK-5597,PAYLOAD,2023-05-03 04:17:00,15.69917818,0.0003571,69.9961,192.4511,263.8611,96.2177,9.1848e-07,-1.03e-06,0.0,0 STARLINK-5597,1 55403U 23014N   23123.17848068 -.00000103  00000-0  91848-6 0  9991,2 55403  69.9961 192.4511 0003571 263.8611  96.2177 15.69917818 14568,6737.269,91.725,361.54,356.728,0.0
55403.0,STARLINK-5597,PAYLOAD,2023-05-03 13:27:30,15.6992622,0.0003099,69.9979,191.3774,260.1199,99.9647,1.2239e-05,1.259e-05,0.0,0 STARLINK-5597,1 55403U 23014N   23123.56077451  .00001259  00000-0  12239-4 0  9991,2 55403  69.9979 191.3774 0003099 260.1199  99.9647 15.69926220 15562,6737.245,91.724,361.198,357.022,0.0
55403.0,STARLINK-5597,PAYLOAD,2023-05-03 14:59:16,15.69926453,0.0003091,69.9979,191.1982,259.9685,100.1162,1.2351e-05,1.273e-05,0.0,0 STARLINK-5597,1 55403U 23014N   23123.62449105  .00001273  00000-0  12351-4 0  9998,2 55403  69.9979 191.1982 0003091 259.9685 100.1162 15.69926453 14631,6737.244,91.724,361.192,357.027,0.0
55403.0,STARLINK-5597,PAYLOAD,2023-05-04 10:52:01,15.6995907,0.0003349,69.9968,188.869,268.2647,91.8165,-5.748e-05,-7.129e-05,0.0,0 STARLINK-5597,1 55403U 23014N   23124.45280008 -.00007129  00000-0 -57480-4 0  9995,2 55403  69.9968 188.8690 0003349 268.2647  91.8165 15.69959070 14769,6737.151,91.722,361.272,356.76,0.0
55403.0,STARLINK-5597,PAYLOAD,2023-05-04 13:55:32,15.69936631,0.0003261,69.9962,188.511,269.845,90.2372,-1.9049e-05,-2.504e-05,0.0,0 STARLINK-5597,1 55403U 23014N   23124.58023919 -.00002504  00000-0 -19049-4 0  9996,2 55403  69.9962 188.5110 0003261 269.8450  90.2372 15.69936631 15727,6737.215,91.723,361.277,356.883,0.0
55403.0,STARLINK-5597,PAYLOAD,2023-05-05 05:13:04,15.69921518,0.0003196,69.9978,186.7207,261.2786,98.8048,7.6291e-06,7.05e-06,0.0,0 STARLINK-5597,1 55403U 23014N   23125.21741278  .00000705  00000-0  76291-5 0  9994,2 55403  69.9978 186.7207 0003196 261.2786  98.8048 15.69921518 14884,6737.259,91.724,361.277,356.97,0.0
55403.0,STARLINK-5597,PAYLOAD,2023-05-05 06:44:49,15.69918939,0.0003431,69.997,186.5399,266.0608,94.0196,1.3773e-05,1.443e-05,0.0,0 STARLINK-5597,1 55403U 23014N   23125.28112950  .00001443  00000-0  13773-4 0  9995,2 55403  69.9970 186.5399 0003431 266.0608  94.0196 15.69918939 15835,6737.266,91.724,361.442,356.819,0.0
55403.0,STARLINK-5597,PAYLOAD,2023-05-06 13:19:51,15.69931673,0.0003358,69.9965,182.9569,268.1363,91.9448,1.612e-05,1.726e-05,0.0,0 STARLINK-5597,1 55403U 23014N   23126.55545503  .00001726  00000-0  16120-4 0  9993,2 55403  69.9965 182.9569 0003358 268.1363  91.9448 15.69931673 16036,6737.229,91.724,361.357,356.832,0.0
55403.0,STARLINK-5597,PAYLOAD,2023-05-07 03:05:37,15.6992692,0.0003016,69.9983,181.3478,272.1096,87.9754,5.7557e-06,4.8e-06,0.0,0 STARLINK-5597,1 55403U 23014N   23127.12891177  .00000480  00000-0  57557-5 0  9994,2 55403  69.9983 181.3478 0003016 272.1096  87.9754 15.69926920 15186,6737.243,91.724,361.14,357.076,0.0
55403.0,STARLINK-5597,PAYLOAD,2023-05-07 12:16:09,15.69911942,0.0003327,69.9977,180.272,269.3512,90.7303,-1.2221e-05,-1.681e-05,0.0,0 STARLINK-5597,1 55403U 23014N   23127.51122516 -.00001681  00000-0 -12221-4 0  9995,2 55403  69.9977 180.2720 0003327 269.3512  90.7303 15.69911942 15240,6737.286,91.725,361.392,356.909,0.0
55403.0,STARLINK-5597,PAYLOAD,2023-05-07 13:47:54,15.69912275,0.0003324,69.9978,180.0931,269.6727,90.4087,-1.2014e-05,-1.656e-05,0.0,0 STARLINK-5597,1 55403U 23014N   23127.57494177 -.00001656  00000-0 -12014-4 0  9998,2 55403  69.9978 180.0931 0003324 269.6727  90.4087 15.69912275 16192,6737.285,91.725,361.389,356.911,0.0
55403.0,STARLINK-5597,PAYLOAD,2023-05-08 05:05:24,15.69934833,0.0003661,69.9965,178.3005,265.2799,94.7978,8.1391e-06,7.66e-06,0.0,0 STARLINK-5597,1 55403U 23014N   23128.21208955  .00000766  00000-0  81391-5 0  9991,2 55403  69.9965 178.3005 0003661 265.2799  94.7978 15.69934833 15352,6737.22,91.724,361.552,356.619,0.0
55403.0,STARLINK-5597,PAYLOAD,2023-05-08 20:22:56,15.69922895,0.0003726,69.9956,176.5089,267.4187,92.6582,1.6749e-06,-1.2e-07,0.0,0 STARLINK-5597,1 55403U 23014N   23128.84926449 -.00000012  00000-0  16749-5 0  9995,2 55403  69.9956 176.5089 0003726 267.4187  92.6582 15.69922895 15455,6737.255,91.724,361.63,356.609,0.0
55403.0,STARLINK-5597,PAYLOAD,2023-05-09 13:12:12,15.69921693,0.000361,69.9971,174.5392,265.7276,94.3507,2.4371e-05,2.718e-05,0.0,0 STARLINK-5597,1 55403U 23014N   23129.55014694  .00002718  00000-0  24371-4 0  9997,2 55403  69.9971 174.5392 0003610 265.7276  94.3507 15.69921693 16507,6737.258,91.724,361.555,356.691,0.0
55403.0,STARLINK-5597,PAYLOAD,2023-05-10 06:01:10,15.7019608,0.0003156,69.9961,172.5658,259.5975,100.4865,0.0003096,0.00037602,0.0,0 STARLINK-5597,1 55403U 23014N   23130.25081180  .00037602  00000-0  30960-3 0  9990,2 55403  69.9961 172.5658 0003156 259.5975 100.4865 15.70196080 16615,6736.473,91.708,360.464,356.212,0.0
55403.0,STARLINK-5597,PAYLOAD,2023-05-10 18:15:29,15.69935147,0.0003308,69.9974,171.135,266.8676,93.2141,1.7455e-05,1.887e-05,0.0,0 STARLINK-5597,1 55403U 23014N   23130.76075866  .00001887  00000-0  17455-4 0  9991,2 55403  69.9974 171.1350 0003308 266.8676  93.2141 15.69935147 15754,6737.22,91.724,361.313,356.856,0.0
55403.0,STARLINK-5597,PAYLOAD,2023-05-11 11:04:47,15.69909936,0.0003105,69.9991,169.1629,265.8197,94.2644,-3.0462e-06,-5.79e-06,0.0,0 STARLINK-5597,1 55403U 23014N   23131.46166306 -.00000579  00000-0 -30462-5 0  9992,2 55403  69.9991 169.1629 0003105 265.8197  94.2644 15.69909936 15869,6737.292,91.725,361.249,357.065,0.0
55403.0,STARLINK-5597,PAYLOAD,2023-05-11 12:36:32,15.69917504,0.0003569,69.9985,168.9869,256.132,103.9478,-5.5262e-06,-8.77e-06,0.0,0 STARLINK-5597,1 55403U 23014N   23131.52537464 -.00000877  00000-0 -55262-5 0  9992,2 55403  69.9985 168.9869 0003569 256.1320 103.9478 15.69917504 15874,6737.27,91.725,361.54,356.73,0.0
55403.0,STARLINK-5597,PAYLOAD,2023-05-12 03:54:03,15.69917684,0.0003528,69.9998,167.192,257.4925,102.5876,2.1714e-05,2.398e-05,0.0,0 STARLINK-5597,1 55403U 23014N   23132.16253598  .00002398  00000-0  21714-4 0  9998,2 55403  69.9998 167.1920 0003528 257.4925 102.5876 15.69917684 16919,6737.27,91.725,361.511,356.758,0.0
55403.0,STARLINK-5597,PAYLOAD,2023-05-12 19:11:33,15.69935669,0.0003504,69.9974,165.4029,268.9841,91.0953,5.1152e-06,4.02e-06,0.0,0 STARLINK-5597,1 55403U 23014N   23132.79969605  .00000402  00000-0  51152-5 0  9994,2 55403  69.9974 165.4029 0003504 268.9841  91.0953 15.69935669 16070,6737.218,91.724,361.444,356.722,0.0
55403.0,STARLINK-5597,PAYLOAD,2023-05-13 04:22:05,15.69916364,0.0003444,69.9961,164.3224,280.9712,79.1096,-1.9733e-05,-2.584e-05,0.0,0 STARLINK-5597,1 55403U 23014N   23133.18201245 -.00002584  00000-0 -19733-4 0  9990,2 55403  69.9961 164.3224 0003444 280.9712  79.1096 15.69916364 16138,6737.273,91.725,361.459,356.818,0.0
55403.0,STARLINK-5597,PAYLOAD,2023-05-13 12:00:50,15.69922209,0.0003242,69.9971,163.4346,246.7967,113.2887,-1.469e-06,-3.89e-06,0.0,0 STARLINK-5597,1 55403U 23014N   23133.50058917 -.00000389  00000-0 -14690-5 0  9991,2 55403  69.9971 163.4346 0003242 246.7967 113.2887 15.69922209 16180,6737.257,91.724,361.306,356.937,0.0
55403.0,STARLINK-5597,PAYLOAD,2023-05-14 12:28:52,15.6992995,0.0003174,69.9965,160.5658,263.2811,96.8023,3.8978e-06,2.56e-06,0.0,0 STARLINK-5597,1 55403U 23014N   23134.52005150  .00000256  00000-0  38978-5 0  9991,2 55403  69.9965 160.5658 0003174 263.2811  96.8023 15.69929950 16349,6737.234,91.724,361.238,356.961,0.0
55403.0,STARLINK-5597,PAYLOAD,2023-05-14 18:35:53,15.69922867,0.0002972,69.9969,159.8477,274.1087,85.9769,1.779e-06,1e-08,0.0,0 STARLINK-5597,1 55403U 23014N   23134.77492464  .00000001  00000-0  17790-5 0  9993,2 55403  69.9969 159.8477 0002972 274.1087  85.9769 15.69922867 16384,6737.255,91.724,361.122,357.117,0.0
